CCSDS_OMM_VERS = 2.0
CREATION_DATE  = 
ORIGINATOR     = 

OBJECT_NAME    = PROGRESS-MS 32
OBJECT_ID      = 2025-204A
CENTER_NAME    = EARTH
REF_FRAME      = TEME
TIME_SYSTEM    = UTC
MEAN_ELEMENT_THEORY = SGP/SGP4

EPOCH          = 2025-11-04T20:58:11.069472
MEAN_MOTION    = 15.49753834
ECCENTRICITY   = .00050432
INCLINATION    = 51.6335
RA_OF_ASC_NODE = 329.9349
ARG_OF_PERICENTER = 17.8705
MEAN_ANOMALY   = 342.2460

EPHEMERIS_TYPE = 0
CLASSIFICATION_TYPE = U
NORAD_CAT_ID   = 65586
ELEMENT_SET_NO = 999
REV_AT_EPOCH   = 27
BSTAR          = .18804931E-3
MEAN_MOTION_DOT = .10201E-3
MEAN_MOTION_DDOT = 0

CCSDS_OMM_VERS = 2.0
CREATION_DATE  = 
ORIGINATOR     = 

OBJECT_NAME    = CYGNUS NG-23
OBJECT_ID      = 2025-208A
CENTER_NAME    = EARTH
REF_FRAME      = TEME
TIME_SYSTEM    = UTC
MEAN_ELEMENT_THEORY = SGP/SGP4

EPOCH          = 2025-11-04T20:58:11.069472
MEAN_MOTION    = 15.49753834
ECCENTRICITY   = .00050432
INCLINATION    = 51.6335
RA_OF_ASC_NODE = 329.9349
ARG_OF_PERICENTER = 17.8705
MEAN_ANOMALY   = 342.2460

EPHEMERIS_TYPE = 0
CLASSIFICATION_TYPE = U
NORAD_CAT_ID   = 65616
ELEMENT_SET_NO = 999
REV_AT_EPOCH   = 22
BSTAR          = .18804931E-3
MEAN_MOTION_DOT = .10201E-3
MEAN_MOTION_DDOT = 0

CCSDS_OMM_VERS = 2.0
CREATION_DATE  = 
ORIGINATOR     = 

OBJECT_NAME    = DRAGONFLY
OBJECT_ID      = 1998-067XH
CENTER_NAME    = EARTH
REF_FRAME      = TEME
TIME_SYSTEM    = UTC
MEAN_ELEMENT_THEORY = SGP/SGP4

EPOCH          = 2025-11-04T18:16:35.799744
MEAN_MOTION    = 15.60292750
ECCENTRICITY   = .00038889
INCLINATION    = 51.6310
RA_OF_ASC_NODE = 328.4405
ARG_OF_PERICENTER = 78.0733
MEAN_ANOMALY   = 282.0696

EPHEMERIS_TYPE = 0
CLASSIFICATION_TYPE = U
NORAD_CAT_ID   = 65729
ELEMENT_SET_NO = 999
REV_AT_EPOCH   = 721
BSTAR          = .10549133E-2
MEAN_MOTION_DOT = .88406E-3
MEAN_MOTION_DDOT = 0

CCSDS_OMM_VERS = 2.0
CREATION_DATE  = 
ORIGINATOR     = 

OBJECT_NAME    = 1998-067XJ
OBJECT_ID      = 1998-067XJ
CENTER_NAME    = EARTH
REF_FRAME      = TEME
TIME_SYSTEM    = UTC
MEAN_ELEMENT_THEORY = SGP/SGP4

EPOCH          = 2025-11-04T11:01:02.796960
MEAN_MOTION    = 15.69488856
ECCENTRICITY   = .00111218
INCLINATION    = 51.6285
RA_OF_ASC_NODE = 328.6616
ARG_OF_PERICENTER = 56.8012
MEAN_ANOMALY   = 303.4050

EPHEMERIS_TYPE = 0
CLASSIFICATION_TYPE = U
NORAD_CAT_ID   = 65730
ELEMENT_SET_NO = 999
REV_AT_EPOCH   = 718
BSTAR          = .21415221E-2
MEAN_MOTION_DOT = .266038E-2
MEAN_MOTION_DDOT = 0

CCSDS_OMM_VERS = 2.0
CREATION_DATE  = 
ORIGINATOR     = 

OBJECT_NAME    = 1998-067XK
OBJECT_ID      = 1998-067XK
CENTER_NAME    = EARTH
REF_FRAME      = TEME
TIME_SYSTEM    = UTC
MEAN_ELEMENT_THEORY = SGP/SGP4

EPOCH          = 2025-11-04T18:57:59.150880
MEAN_MOTION    = 15.58121065
ECCENTRICITY   = .00051955
INCLINATION    = 51.6319
RA_OF_ASC_NODE = 328.6335
ARG_OF_PERICENTER = 55.0681
MEAN_ANOMALY   = 305.0799

EPHEMERIS_TYPE = 0
CLASSIFICATION_TYPE = U
NORAD_CAT_ID   = 65731
ELEMENT_SET_NO = 999
REV_AT_EPOCH   = 721
BSTAR          = .82327443E-3
MEAN_MOTION_DOT = .63217E-3
MEAN_MOTION_DDOT = 0

CCSDS_OMM_VERS = 2.0
CREATION_DATE  = 
ORIGINATOR     = 

OBJECT_NAME    = RSP-03
OBJECT_ID      = 1998-067XL
CENTER_NAME    = EARTH
REF_FRAME      = TEME
TIME_SYSTEM    = UTC
MEAN_ELEMENT_THEORY = SGP/SGP4

EPOCH          = 2025-11-04T23:14:38.584896
MEAN_MOTION    = 15.59205939
ECCENTRICITY   = .00060105
INCLINATION    = 51.6306
RA_OF_ASC_NODE = 327.5728
ARG_OF_PERICENTER = 57.3720
MEAN_ANOMALY   = 302.7852

EPHEMERIS_TYPE = 0
CLASSIFICATION_TYPE = U
NORAD_CAT_ID   = 65732
ELEMENT_SET_NO = 999
REV_AT_EPOCH   = 725
BSTAR          = .92953165E-3
MEAN_MOTION_DOT = .74566E-3
MEAN_MOTION_DDOT = 0

CCSDS_OMM_VERS = 2.0
CREATION_DATE  = 
ORIGINATOR     = 

OBJECT_NAME    = GHS-01
OBJECT_ID      = 1998-067XM
CENTER_NAME    = EARTH
REF_FRAME      = TEME
TIME_SYSTEM    = UTC
MEAN_ELEMENT_THEORY = SGP/SGP4

EPOCH          = 2025-11-04T07:17:14.030304
MEAN_MOTION    = 15.60965600
ECCENTRICITY   = .00041873
INCLINATION    = 51.6324
RA_OF_ASC_NODE = 330.6344
ARG_OF_PERICENTER = 71.8718
MEAN_ANOMALY   = 288.2732

EPHEMERIS_TYPE = 0
CLASSIFICATION_TYPE = U
NORAD_CAT_ID   = 65733
ELEMENT_SET_NO = 999
REV_AT_EPOCH   = 715
BSTAR          = .121272E-2
MEAN_MOTION_DOT = .104594E-2
MEAN_MOTION_DDOT = 0

CCSDS_OMM_VERS = 2.0
CREATION_DATE  = 
ORIGINATOR     = 

OBJECT_NAME    = YOTSUBA-KULOVER
OBJECT_ID      = 1998-067XN
CENTER_NAME    = EARTH
REF_FRAME      = TEME
TIME_SYSTEM    = UTC
MEAN_ELEMENT_THEORY = SGP/SGP4

EPOCH          = 2025-11-04T07:37:11.620704
MEAN_MOTION    = 15.53557594
ECCENTRICITY   = .00026266
INCLINATION    = 51.6323
RA_OF_ASC_NODE = 332.2216
ARG_OF_PERICENTER = 3.8293
MEAN_ANOMALY   = 356.2717

EPHEMERIS_TYPE = 0
CLASSIFICATION_TYPE = U
NORAD_CAT_ID   = 65941
ELEMENT_SET_NO = 999
REV_AT_EPOCH   = 387
BSTAR          = .77981198E-3
MEAN_MOTION_DOT = .50408E-3
MEAN_MOTION_DDOT = 0

CCSDS_OMM_VERS = 2.0
CREATION_DATE  = 
ORIGINATOR     = 

OBJECT_NAME    = BOTAN
OBJECT_ID      = 1998-067XP
CENTER_NAME    = EARTH
REF_FRAME      = TEME
TIME_SYSTEM    = UTC
MEAN_ELEMENT_THEORY = SGP/SGP4

EPOCH          = 2025-11-04T07:26:17.393856
MEAN_MOTION    = 15.54512341
ECCENTRICITY   = .00047823
INCLINATION    = 51.6322
RA_OF_ASC_NODE = 332.1719
ARG_OF_PERICENTER = 18.8156
MEAN_ANOMALY   = 341.3011

EPHEMERIS_TYPE = 0
CLASSIFICATION_TYPE = U
NORAD_CAT_ID   = 65942
ELEMENT_SET_NO = 999
REV_AT_EPOCH   = 387
BSTAR          = .1041658E-2
MEAN_MOTION_DOT = .7009E-3
MEAN_MOTION_DDOT = 0

CCSDS_OMM_VERS = 2.0
CREATION_DATE  = 
ORIGINATOR     = 

OBJECT_NAME    = E-KAGAKU-1
OBJECT_ID      = 1998-067XQ
CENTER_NAME    = EARTH
REF_FRAME      = TEME
TIME_SYSTEM    = UTC
MEAN_ELEMENT_THEORY = SGP/SGP4

EPOCH          = 2025-11-04T18:24:57.187584
MEAN_MOTION    = 15.53608610
ECCENTRICITY   = .00045014
INCLINATION    = 51.6325
RA_OF_ASC_NODE = 329.9769
ARG_OF_PERICENTER = 10.3514
MEAN_ANOMALY   = 349.7568

EPHEMERIS_TYPE = 0
CLASSIFICATION_TYPE = U
NORAD_CAT_ID   = 65943
ELEMENT_SET_NO = 999
REV_AT_EPOCH   = 394
BSTAR          = .75103091E-3
MEAN_MOTION_DOT = .4862E-3
MEAN_MOTION_DDOT = 0

CCSDS_OMM_VERS = 2.0
CREATION_DATE  = 
ORIGINATOR     = 

OBJECT_NAME    = HRC MONOBLOCK CAMERA
OBJECT_ID      = 1998-067XR
CENTER_NAME    = EARTH
REF_FRAME      = TEME
TIME_SYSTEM    = UTC
MEAN_ELEMENT_THEORY = SGP/SGP4

EPOCH          = 2025-11-04T16:07:42.242016
MEAN_MOTION    = 15.50824800
ECCENTRICITY   = .00045443
INCLINATION    = 51.6321
RA_OF_ASC_NODE = 330.8374
ARG_OF_PERICENTER = 27.1824
MEAN_ANOMALY   = 332.9403

EPHEMERIS_TYPE = 0
CLASSIFICATION_TYPE = U
NORAD_CAT_ID   = 66052
ELEMENT_SET_NO = 999
REV_AT_EPOCH   = 292
BSTAR          = .50071641E-3
MEAN_MOTION_DOT = .2908E-3
MEAN_MOTION_DDOT = 0

CCSDS_OMM_VERS = 2.0
CREATION_DATE  = 
ORIGINATOR     = 

OBJECT_NAME    = HTV-X1
OBJECT_ID      = 2025-241A
CENTER_NAME    = EARTH
REF_FRAME      = TEME
TIME_SYSTEM    = UTC
MEAN_ELEMENT_THEORY = SGP/SGP4

EPOCH          = 2025-11-04T20:58:11.069472
MEAN_MOTION    = 15.49753834
ECCENTRICITY   = .00050432
INCLINATION    = 51.6335
RA_OF_ASC_NODE = 329.9349
ARG_OF_PERICENTER = 17.8705
MEAN_ANOMALY   = 342.2460

EPHEMERIS_TYPE = 0
CLASSIFICATION_TYPE = U
NORAD_CAT_ID   = 66174
ELEMENT_SET_NO = 999
REV_AT_EPOCH   = 145
BSTAR          = .18804931E-3
MEAN_MOTION_DOT = .10201E-3
MEAN_MOTION_DDOT = 0

